id,spkid,full_name,pdes,name,prefix,neo,pha,H,diameter,albedo,diameter_sigma,orbit_id,epoch,epoch_mjd,epoch_cal,equinox,e,a,q,i,om,w,ma,ad,n,tp,tp_cal,per,per_y,moid,moid_ld,sigma_e,sigma_a,sigma_q,sigma_i,sigma_om,sigma_w,sigma_ma,sigma_ad,sigma_n,sigma_tp,sigma_per,class,rms
a0000647,2000647,"   647 Adelgunde (1907 AD)",647,Adelgunde,,N,N,11.2,9.725,0.508,0.092,"JPL 30",2459000.5,59000,20200531.0000000,J2000,.1946037343027394,2.441184566666012,1.966120933870591,7.331010804847359,254.6780458030233,175.6289755303932,136.2882601603507,2.916248199461433,.2584063314001592,2458473.081575606600,20181220.5815756,1393.154718962812,3.81424974390914,.980708,381.66213236,3.8056E-8,5.9574E-9,9.3108E-8,4.108E-6,3.0208E-5,3.1827E-5,9.4224E-6,7.1168E-9,9.4592E-10,3.6107E-5,5.0997E-6,MBA,.42237
a0000648,2000648,"   648 Pippa (1907 AE)",648,Pippa,,N,N,9.6,68.27,0.0509,1.6,"JPL 34",2459000.5,59000,20200531.0000000,J2000,.2001174510924419,3.203357719916756,2.562309938069718,9.880835928382812,290.8475473898649,179.9746302061532,205.7692737030535,3.844405501763794,.1719079316935632,2459897.670507361304,20221114.1705074,2094.144211110182,5.73345437675614,1.57897,614.4877549,3.7655E-8,1.7057E-8,1.2492E-7,4.2405E-6,2.3989E-5,2.5976E-5,9.8308E-6,2.047E-8,1.373E-9,5.8573E-5,1.6726E-5,OMB,.42554
a0000649,2000649,"   649 Josefa (1907 AF)",649,Josefa,,N,N,12.7,7.726,0.345,0.077,"JPL 38",2459000.5,59000,20200531.0000000,J2000,.2792719681997344,2.545335906229262,1.834494937967161,12.7177412948983,357.0194144420483,349.506290961237,253.5855510767915,3.256176874491362,.2427093001081721,2459438.944051693862,20210812.4440517,1483.255894354082,4.06093331787565,.829693,322.89162481,4.7326E-8,9.1273E-9,1.2223E-7,4.7656E-6,1.5461E-5,1.7002E-5,8.3834E-6,1.1676E-8,1.3055E-9,3.4799E-5,7.9782E-6,MBA,.42678
a0000650,2000650,"   650 Amalasuntha (1907 AM)",650,Amalasuntha,,N,N,12.6,18.609,0.027,0.173,"JPL 29",2459000.5,59000,20200531.0000000,J2000,.1842227045811947,2.458251787864243,2.005385994962335,2.562859191597478,215.5236731631761,179.0112831510559,81.86022407896216,2.911117580766151,.2557199014299696,2458680.383248737369,20190715.8832487,1407.790312708955,3.85431981576716,1.01194,393.8166898,4.7005E-8,8.4495E-9,1.1198E-7,4.4273E-6,7.7874E-5,7.8505E-5,9.6486E-6,1.0006E-8,1.3184E-9,3.7339E-5,7.2583E-6,MBA,.47722
a0000651,2000651,"   651 Antikleia (1907 AN)",651,Antikleia,,N,N,10.1,31.895,0.172,0.121,"JPL 77",2459000.5,59000,20200531.0000000,J2000,.1011150968199044,3.021341188263738,2.715837981486485,10.75969455068472,38.00330711497996,354.3410607317948,155.8725063563524,3.326844395040991,.1876741324963718,2458169.951302196024,20180220.4513022,1918.218537693039,5.25179613331427,1.72229,670.2635993,4.2526E-8,1.2558E-8,1.2961E-7,4.5046E-6,2.1586E-5,2.933E-5,2.0022E-5,1.3828E-8,1.1701E-9,.00010544,1.196E-5,MBA,.3921
a0000652,2000652,"   652 Jubilatrix (1907 AU)",652,Jubilatrix,,N,N,11.0,15.595,0.200,0.292,"JPL 36",2459000.5,59000,20200531.0000000,J2000,.127393735426069,2.554449864611767,2.229028954400258,15.74399756578693,86.18997811747001,276.8550984957544,242.0254828279958,2.879870774823276,.2414115246596542,2459489.186351400690,20211001.6863514,1491.229552969907,4.08276400539331,1.29261,503.0450337,4.1333E-8,8.8747E-9,1.0761E-7,4.2193E-6,1.5525E-5,2.2041E-5,1.7052E-5,1.0005E-8,1.2581E-9,7.1314E-5,7.7712E-6,MBA,.40162
a0000653,2000653,"   653 Berenike (1907 BK)",653,Berenike,,N,N,9.3,49.793,0.085,0.416,"JPL 41",2459000.5,59000,20200531.0000000,J2000,.03987941997094954,3.015808818050061,2.89554011164295,11.29194049892912,132.8392405724304,57.70550753308711,57.78535948859655,3.136077524457173,.1881907893215445,2458693.442679623582,20190728.9426796,1912.952282616237,5.23737791270701,1.91669,745.9182473,4.2127E-8,1.24E-8,1.2934E-7,4.3737E-6,2.2365E-5,5.9844E-5,5.5022E-5,1.2894E-8,1.1607E-9,.00029255,1.1798E-5,MBA,.4501
a0000654,2000654,"   654 Zelinda (1908 BM)",654,Zelinda,,N,N,8.52,160.736,0.027,1.342,"JPL 102",2459000.5,59000,20200531.0000000,J2000,.2309674409429993,2.297239513326676,1.766651981700472,18.12597725675609,278.4436885237267,213.9496382547552,88.38145901414659,2.827827044952879,.2830705295537446,2458688.275837514847,20190723.7758375,1271.767854348996,3.4819106210787,.804861,313.22775537,1.957E-8,3.088E-9,4.5183E-8,3.4021E-6,1.0006E-5,1.1522E-5,7.0958E-6,3.8013E-9,5.7077E-10,2.4657E-5,2.5643E-6,MBA,.45531
a0000655,2000655,"   655 Briseis (1907 BF)",655,Briseis,,N,N,10.0,29.057,0.302,0.273,"JPL 37",2459000.5,59000,20200531.0000000,J2000,.08374880706624759,2.991535155010012,2.740997654481182,6.512163151217107,129.8446485076777,280.6529476694503,272.9483273766569,3.242072655538843,.1904859322291592,2459457.497908478710,20210830.9979085,1889.903342399644,5.17427335359245,1.76123,685.4178791,3.5453E-8,1.2812E-8,1.0562E-7,3.9742E-6,3.457E-5,4.283E-5,2.6993E-5,1.3885E-8,1.2237E-9,.00014284,1.2141E-5,MBA,.42815
a0000656,2000656,"   656 Beagle (1908 BU)",656,Beagle,,N,N,10.1,62.604,0.045,0.512,"JPL 84",2459000.5,59000,20200531.0000000,J2000,.1335627105255648,3.150500726032715,2.729711309551026,.5165968582398451,184.2737165126559,330.6824682162022,342.388346880795,3.571290142514405,.1762522613768028,2459100.422990954163,20200907.9229910,2042.526984833233,5.59213411316422,1.73969,677.0351573,3.4862E-8,1.2322E-8,1.1161E-7,3.9125E-6,.00037279,.00037302,1.3558E-5,1.3968E-8,1.034E-9,7.7123E-5,1.1983E-5,MBA,.44701
a0000657,2000657,"   657 Gunlod (1908 BV)",657,Gunlod,,N,N,11.2,39.401,0.044,0.071,"JPL 86",2459000.5,59000,20200531.0000000,J2000,.1134800397813953,2.6101543680415,2.313953946520568,10.23851889783197,297.5377301214161,245.0294225027525,174.2217078780598,2.906354789562432,.2337247934270728,2458255.086108202420,20180516.5861082,1540.273048149373,4.21703777727412,1.33966,521.3554822,3.0163E-8,7.6482E-9,7.9228E-8,3.8223E-6,1.7466E-5,2.3886E-5,1.6837E-5,8.5161E-9,1.0273E-9,7.1402E-5,6.7699E-6,MBA,.39663
a0000658,2000658,"   658 Asteria (1908 BW)",658,Asteria,,N,N,10.5,21.894,0.192,0.243,"JPL 36",2459000.5,59000,20200531.0000000,J2000,.06535817646418006,2.852475034513148,2.666042467847769,1.505935874477819,350.9824048537128,60.1763816257537,166.8336608587644,3.038907601178526,.2045838257846878,2458185.021746922717,20180307.5217469,1759.66989872835,4.81771361732608,1.67687,652.5874979,3.6913E-8,9.5846E-9,1.0457E-7,4.211E-6,.00013945,.00014257,3.0204E-5,1.0211E-8,1.0311E-9,.00014661,8.869E-6,MBA,.44772
a0000659,2000659,"   659 Nestor (1908 CS)",659,Nestor,,N,N,8.7,112.320,0.035,1.850,"JPL 79",2459000.5,59000,20200531.0000000,J2000,.1174476492952609,5.164464314370787,4.557910120778677,4.522629504273476,350.7391113921794,343.462148807114,14.89833005054042,5.771018507962897,.08397812089840415,2458823.092719494590,20191205.5927195,4286.830857236306,11.7367032367866,3.54834,1380.9074778,4.916E-8,6.7207E-8,2.873E-7,4.8822E-6,4.9164E-5,5.236E-5,1.7452E-5,7.5101E-8,1.6393E-9,.00020829,8.3679E-5,TJN,.44743
a0000660,2000660,"   660 Crescentia (1908 CC)",660,Crescentia,,N,N,9.1,42.302,0.332,0.352,"JPL 80",2459000.5,59000,20200531.0000000,J2000,.1077969117397928,2.533687173981771,2.260563521311813,15.19899271599842,156.9329952641983,105.776658925491,168.0026549340116,2.806810826651729,.2443850216419729,2458313.049296985404,20180713.5492970,1473.085369885739,4.03308793945445,1.29809,505.1776853,4.2681E-8,7.136E-9,1.0814E-7,3.5281E-6,1.7314E-5,2.3107E-5,1.5997E-5,7.9053E-9,1.0325E-9,6.4915E-5,6.2233E-6,MBA,.41576
a0000661,2000661,"   661 Cloelia (1908 CL)",661,Cloelia,,N,N,9.6,40.081,0.182,0.239,"JPL 33",2459000.5,59000,20200531.0000000,J2000,.0362161504510071,3.017694165996558,2.9084049000657,9.242301386973383,335.5906665634456,184.1188743952089,149.0043393889603,3.126983431927415,.1880144545065296,2458207.984659729790,20180330.4846597,1914.746400455596,5.24228993964571,1.91717,746.1050489,4.3231E-8,1.3861E-8,1.3197E-7,4.717E-6,2.6421E-5,6.6166E-5,5.9719E-5,1.4363E-8,1.2954E-9,.00031873,1.3193E-5,MBA,.40572
a0000662,2000662,"   662 Newtonia (1908 CW)",662,Newtonia,,N,N,10.3,22.127,0.228,0.227,"JPL 45",2459000.5,59000,20200531.0000000,J2000,.2162032178009298,2.553444420664443,2.00138152044096,4.120151803088812,133.6989912093654,165.4278982554677,103.2064908144174,3.105507320887927,.2415541259514622,2458573.239689674538,20190330.7396897,1490.349206754342,4.08035374881408,.986048,383.74030016,3.0069E-8,7.1488E-9,7.5446E-8,3.5299E-6,6.3112E-5,6.4106E-5,1.262E-5,8.6944E-9,1.0144E-9,5.1741E-5,6.2587E-6,MBA,.43128
a0000663,2000663,"   663 Gerlinde (1908 DG)",663,Gerlinde,,N,N,9.2,107.795,0.031,1.571,"JPL 78",2459000.5,59000,20200531.0000000,J2000,.1454313256206853,3.067939332164949,2.62176484816436,17.82255584245327,232.8535987378693,311.3024511808906,32.25125939651007,3.514113816165537,.183414608427217,2458824.661991931476,20191207.1619919,1962.766232673642,5.37376107508184,1.65428,643.7961476,3.28E-8,1.2081E-8,9.8799E-8,3.5617E-6,1.3104E-5,1.8757E-5,1.4487E-5,1.3838E-8,1.0834E-9,7.8622E-5,1.1594E-5,MBA,.42553
a0000664,2000664,"   664 Judith (1908 DH)",664,Judith,,N,N,9.9,85.214,0.040,0.588,"JPL 40",2459000.5,59000,20200531.0000000,J2000,.2308453418552883,3.194775136347968,2.457276177846946,8.579632494875076,170.9144492715827,102.3885774906586,269.3490787375772,3.93227409484899,.1726011282040956,2459525.704685540820,20211107.2046855,2085.73375936634,5.71042781482913,1.45922,567.8846474,3.4109E-8,1.4922E-8,1.1292E-7,3.9655E-6,2.5458E-5,2.6394E-5,9.3108E-6,1.8366E-8,1.2092E-9,5.5361E-5,1.4613E-5,MBA,.45486
a0000665,2000665,"   665 Sabine (1908 DK)",665,Sabine,,N,N,8.7,51.09,0.3895,2.4,"JPL 32",2459000.5,59000,20200531.0000000,J2000,.1729024397162797,3.14480696311254,2.601062166753637,14.75351469683004,298.4001072442914,318.6546719372497,37.7641476224528,3.688551759471443,.1767311426081729,2458786.818658584249,20191030.3186586,2036.992432047751,5.57698133346407,1.60527,624.7229259,4.1115E-8,1.6545E-8,1.3408E-7,4.678E-6,1.7682E-5,2.2585E-5,1.6111E-5,1.9405E-8,1.3947E-9,9.0584E-5,1.6075E-5,MBA,.4351
